{"type": "FeatureCollection", "features": [ {"type": "Feature", "properties": {"norad_id": 34738, "name": "COSMOS 2251 DEB", "group": "cosmos-2251-debris", "lat": 40.77271966478006, "lon": 140.83108210524318, "alt_km": 756.5693811558249, "timestamp": "2025-12-21T16:47:55.134000+00:00", "meta": {"OBJECT_NAME": "COSMOS 2251 DEB", "OBJECT_ID": "1993-036ZG", "EPOCH": "2025-12-20T12:59:02.140800", "MEAN_MOTION": 14.46318559, "ECCENTRICITY": 0.0047533, "INCLINATION": 74.0152, "RA_OF_ASC_NODE": 128.6853, "ARG_OF_PERICENTER": 273.5184, "MEAN_ANOMALY": 217.0479, "EPHEMERIS_TYPE": 0, "CLASSIFICATION_TYPE": "U", "NORAD_CAT_ID": 34738, "ELEMENT_SET_NO": 999, "REV_AT_EPOCH": 87971, "BSTAR": 0.00021891, "MEAN_MOTION_DOT": 7.68e-06, "MEAN_MOTION_DDOT": 0}, "tle": {"line1": "1 34738U 93036ZG  25354.54099700  .00000768  00000+0  21891-3 0  9993", "line2": "2 34738  74.0152 128.6853 0047533 273.5184 217.0479 14.46318559879719"}}, "geometry": {"type": "Point", "coordinates": [140.83108210524318, 40.77271966478006]}}, {"type": "Feature", "properties": {"norad_id": 34750, "name": "COSMOS 2251 DEB", "group": "cosmos-2251-debris", "lat": -33.48786346145096, "lon": 173.8261688187684, "alt_km": 721.2220745178147, "timestamp": "2025-12-21T16:47:55.134011+00:00", "meta": {"OBJECT_NAME": "COSMOS 2251 DEB", "OBJECT_ID": "1993-036ZU", "EPOCH": "2025-12-21T12:09:31.852224", "MEAN_MOTION": 14.613988, "ECCENTRICITY": 0.003846, "INCLINATION": 74.1061, "RA_OF_ASC_NODE": 185.0597, "ARG_OF_PERICENTER": 135.1733, "MEAN_ANOMALY": 253.3274, "EPHEMERIS_TYPE": 0, "CLASSIFICATION_TYPE": "U", "NORAD_CAT_ID": 34750, "ELEMENT_SET_NO": 999, "REV_AT_EPOCH": 88359, "BSTAR": 0.00079184, "MEAN_MOTION_DOT": 3.932e-05, "MEAN_MOTION_DDOT": 0}, "tle": {"line1": "1 34750U 93036ZU  25355.50661866  .00003932  00000+0  79184-3 0  9996", "line2": "2 34750  74.1061 185.0597 0038460 135.1733 253.3274 14.61398800883598"}}, "geometry": {"type": "Point", "coordinates": [173.8261688187684, -33.48786346145096]}}, {"type": "Feature", "properties": {"norad_id": 34752, "name": "COSMOS 2251 DEB", "group": "cosmos-2251-debris", "lat": -73.83948321773187, "lon": -99.26589031511374, "alt_km": 605.2751508754327, "timestamp": "2025-12-21T16:47:55.134020+00:00", "meta": {"OBJECT_NAME": "COSMOS 2251 DEB", "OBJECT_ID": "1993-036ZW", "EPOCH": "2025-12-21T09:11:20.743008", "MEAN_MOTION": 15.00105558, "ECCENTRICITY": 0.0047501, "INCLINATION": 74.0131, "RA_OF_ASC_NODE": 343.0108, "ARG_OF_PERICENTER": 108.6219, "MEAN_ANOMALY": 252.0135, "EPHEMERIS_TYPE": 0, "CLASSIFICATION_TYPE": "U", "NORAD_CAT_ID": 34752, "ELEMENT_SET_NO": 999, "REV_AT_EPOCH": 89979, "BSTAR": 0.00079722, "MEAN_MOTION_DOT": 0.00010156, "MEAN_MOTION_DDOT": 0}, "tle": {"line1": "1 34752U 93036ZW  25355.38287897  .00010156  00000+0  79722-3 0  9996", "line2": "2 34752  74.0131 343.0108 0047501 108.6219 252.0135 15.00105558899792"}}, "geometry": {"type": "Point", "coordinates": [-99.26589031511374, -73.83948321773187]}}, {"type": "Feature", "properties": {"norad_id": 34754, "name": "COSMOS 2251 DEB", "group": "cosmos-2251-debris", "lat": 49.76667413587785, "lon": 11.244152400733286, "alt_km": 772.2510621405281, "timestamp": "2025-12-21T16:47:55.134031+00:00", "meta": {"OBJECT_NAME": "COSMOS 2251 DEB", "OBJECT_ID": "1993-036ZY", "EPOCH": "2025-12-21T08:42:32.585760", "MEAN_MOTION": 14.40492818, "ECCENTRICITY": 0.0029893, "INCLINATION": 74.0294, "RA_OF_ASC_NODE": 211.6518, "ARG_OF_PERICENTER": 326.1547, "MEAN_ANOMALY": 213.8575, "EPHEMERIS_TYPE": 0, "CLASSIFICATION_TYPE": "U", "NORAD_CAT_ID": 34754, "ELEMENT_SET_NO": 999, "REV_AT_EPOCH": 88257, "BSTAR": 0.00016125, "MEAN_MOTION_DOT": 4.89e-06, "MEAN_MOTION_DDOT": 0}, "tle": {"line1": "1 34754U 93036ZY  25355.36287715  .00000489  00000+0  16125-3 0  9991", "line2": "2 34754  74.0294 211.6518 0029893 326.1547 213.8575 14.40492818882576"}}, "geometry": {"type": "Point", "coordinates": [11.244152400733286, 49.76667413587785]}}, {"type": "Feature", "properties": {"norad_id": 34755, "name": "COSMOS 2251 DEB", "group": "cosmos-2251-debris", "lat": -31.779010330866562, "lon": 105.91291891224834, "alt_km": 1014.744123111298, "timestamp": "2025-12-21T16:47:55.134042+00:00", "meta": {"OBJECT_NAME": "COSMOS 2251 DEB", "OBJECT_ID": "1993-036ZZ", "EPOCH": "2025-12-20T18:30:29.240064", "MEAN_MOTION": 13.50572591, "ECCENTRICITY": 0.04081275, "INCLINATION": 73.9255, "RA_OF_ASC_NODE": 277.1155, "ARG_OF_PERICENTER": 295.5233, "MEAN_ANOMALY": 88.1239, "EPHEMERIS_TYPE": 0, "CLASSIFICATION_TYPE": "U", "NORAD_CAT_ID": 34755, "ELEMENT_SET_NO": 999, "REV_AT_EPOCH": 82632, "BSTAR": 0.00057435404, "MEAN_MOTION_DOT": 5.95e-06, "MEAN_MOTION_DDOT": 0}, "tle": {"line1": "1 34755U 93036ZZ  25354.77117176  .00000595  00000+0  57435-3 0  9996", "line2": "2 34755  73.9255 277.1155 0408127 295.5233  88.1239 13.50572591826326"}}, "geometry": {"type": "Point", "coordinates": [105.91291891224834, -31.779010330866562]}}, {"type": "Feature", "properties": {"norad_id": 34756, "name": "COSMOS 2251 DEB", "group": "cosmos-2251-debris", "lat": -56.489741640121935, "lon": 63.96178130416769, "alt_km": 780.7562730518348, "timestamp": "2025-12-21T16:47:55.134052+00:00", "meta": {"OBJECT_NAME": "COSMOS 2251 DEB", "OBJECT_ID": "1993-036AAA", "EPOCH": "2025-12-21T06:32:15.961344", "MEAN_MOTION": 13.67263251, "ECCENTRICITY": 0.0345636, "INCLINATION": 74.0031, "RA_OF_ASC_NODE": 90.3374, "ARG_OF_PERICENTER": 324.3152, "MEAN_ANOMALY": 33.529, "EPHEMERIS_TYPE": 0, "CLASSIFICATION_TYPE": "U", "NORAD_CAT_ID": 34756, "ELEMENT_SET_NO": 999, "REV_AT_EPOCH": 83538, "BSTAR": 0.000897, "MEAN_MOTION_DOT": 1.115e-05, "MEAN_MOTION_DDOT": 0}, "tle": {"line1": "1 34756U 93036AAA 25355.27240696  .00001115  00000+0  89700-3 0  9996", "line2": "2 34756  74.0031  90.3374 0345636 324.3152  33.5290 13.67263251835380"}}, "geometry": {"type": "Point", "coordinates": [63.96178130416769, -56.489741640121935]}}, {"type": "Feature", "properties": {"norad_id": 34758, "name": "COSMOS 2251 DEB", "group": "cosmos-2251-debris", "lat": 54.10223993122389, "lon": 81.89909946152147, "alt_km": 957.7953224490648, "timestamp": "2025-12-21T16:47:55.134063+00:00", "meta": {"OBJECT_NAME": "COSMOS 2251 DEB", "OBJECT_ID": "1993-036AAC", "EPOCH": "2025-12-21T02:05:27.269088", "MEAN_MOTION": 13.58097876, "ECCENTRICITY": 0.03820265, "INCLINATION": 74.1076, "RA_OF_ASC_NODE": 286.0629, "ARG_OF_PERICENTER": 47.8221, "MEAN_ANOMALY": 315.467, "EPHEMERIS_TYPE": 0, "CLASSIFICATION_TYPE": "U", "NORAD_CAT_ID": 34758, "ELEMENT_SET_NO": 999, "REV_AT_EPOCH": 83023, "BSTAR": 0.0013759148, "MEAN_MOTION_DOT": 1.585e-05, "MEAN_MOTION_DDOT": 0}, "tle": {"line1": "1 34758U 93036AAC 25355.08712117  .00001585  00000+0  13759-2 0  9990", "line2": "2 34758  74.1076 286.0629 0382026  47.8221 315.4670 13.58097876830238"}}, "geometry": {"type": "Point", "coordinates": [81.89909946152147, 54.10223993122389]}}, {"type": "Feature", "properties": {"norad_id": 34760, "name": "COSMOS 2251 DEB", "group": "cosmos-2251-debris", "lat": -9.70021779570199, "lon": 109.16889453737375, "alt_km": 888.7077832155564, "timestamp": "2025-12-21T16:47:55.134073+00:00", "meta": {"OBJECT_NAME": "COSMOS 2251 DEB", "OBJECT_ID": "1993-036AAE", "EPOCH": "2025-12-21T02:27:21.793248", "MEAN_MOTION": 14.19589207, "ECCENTRICITY": 0.00971621, "INCLINATION": 74.0634, "RA_OF_ASC_NODE": 287.4354, "ARG_OF_PERICENTER": 337.728, "MEAN_ANOMALY": 39.9901, "EPHEMERIS_TYPE": 0, "CLASSIFICATION_TYPE": "U", "NORAD_CAT_ID": 34760, "ELEMENT_SET_NO": 999, "REV_AT_EPOCH": 86807, "BSTAR": 0.00035110711, "MEAN_MOTION_DOT": 7.51e-06, "MEAN_MOTION_DDOT": 0}, "tle": {"line1": "1 34760U 93036AAE 25355.10233557  .00000751  00000+0  35111-3 0  9993", "line2": "2 34760  74.0634 287.4354 0097162 337.7280  39.9901 14.19589207868070"}}, "geometry": {"type": "Point", "coordinates": [109.16889453737375, -9.70021779570199]}}, {"type": "Feature", "properties": {"norad_id": 34761, "name": "COSMOS 2251 DEB", "group": "cosmos-2251-debris", "lat": -13.519285333058395, "lon": -17.66931534822446, "alt_km": 746.6573707885154, "timestamp": "2025-12-21T16:47:55.134082+00:00", "meta": {"OBJECT_NAME": "COSMOS 2251 DEB", "OBJECT_ID": "1993-036AAF", "EPOCH": "2025-12-20T15:49:12.081504", "MEAN_MOTION": 14.3807453, "ECCENTRICITY": 0.00368471, "INCLINATION": 74.0284, "RA_OF_ASC_NODE": 348.1964, "ARG_OF_PERICENTER": 20.0279, "MEAN_ANOMALY": 340.2311, "EPHEMERIS_TYPE": 0, "CLASSIFICATION_TYPE": "U", "NORAD_CAT_ID": 34761, "ELEMENT_SET_NO": 999, "REV_AT_EPOCH": 87763, "BSTAR": 0.00043327505, "MEAN_MOTION_DOT": 1.297e-05, "MEAN_MOTION_DDOT": 0}, "tle": {"line1": "1 34761U 93036AAF 25354.65916761  .00001297  00000+0  43328-3 0  9993", "line2": "2 34761  74.0284 348.1964 0036847  20.0279 340.2311 14.38074530877631"}}, "geometry": {"type": "Point", "coordinates": [-17.66931534822446, -13.519285333058395]}}, {"type": "Feature", "properties": {"norad_id": 34784, "name": "COSMOS 2251 DEB", "group": "cosmos-2251-debris", "lat": -47.907907091513636, "lon": 145.71694267329292, "alt_km": 712.4194433552902, "timestamp": "2025-12-21T16:47:55.134092+00:00", "meta": {"OBJECT_NAME": "COSMOS 2251 DEB", "OBJECT_ID": "1993-036AAM", "EPOCH": "2025-12-19T22:39:42.145920", "MEAN_MOTION": 14.60808995, "ECCENTRICITY": 0.0049222, "INCLINATION": 74.0073, "RA_OF_ASC_NODE": 310.5647, "ARG_OF_PERICENTER": 117.7322, "MEAN_ANOMALY": 242.885, "EPHEMERIS_TYPE": 0, "CLASSIFICATION_TYPE": "U", "NORAD_CAT_ID": 34784, "ELEMENT_SET_NO": 999, "REV_AT_EPOCH": 88640, "BSTAR": 0.00031795, "MEAN_MOTION_DOT": 1.549e-05, "MEAN_MOTION_DDOT": 0}, "tle": {"line1": "1 34784U 93036AAM 25353.94423780  .00001549  00000+0  31795-3 0  9998", "line2": "2 34784  74.0073 310.5647 0049222 117.7322 242.8850 14.60808995886402"}}, "geometry": {"type": "Point", "coordinates": [145.71694267329292, -47.907907091513636]}}]}